ASTROCAST-0403          
1 55111U 23001DG  26068.82333059  .00013959  00000+0  51317-3 0  9990
2 55111  97.5604 161.3228 0004771 338.0704  22.0330 15.28004949129377
STARLINK-31125          
1 58678U 23211M   26068.10153354 -.00000078  00000+0  66634-5 0  9992
2 58678  43.0021  88.6818 0000687 254.9458 105.1318 15.27579104123548
